{
    "links": {
        "self": "http://www.neowsapp.com/rest/v1/neo/3279827?api_key=iIulBulltgU6a56xZRHN4H3l9WmuAYTsLGpBGhQ2"
    },
    "id": "3279827",
    "neo_reference_id": "3279827",
    "name": "(2005 LQ40)",
    "designation": "2005 LQ40",
    "nasa_jpl_url": "http://ssd.jpl.nasa.gov/sbdb.cgi?sstr=3279827",
    "absolute_magnitude_h": 23.3,
    "estimated_diameter": {
        "kilometers": {
            "estimated_diameter_min": 0.058150704,
            "estimated_diameter_max": 0.130028927
        },
        "meters": {
            "estimated_diameter_min": 58.1507039646,
            "estimated_diameter_max": 130.0289270043
        },
        "miles": {
            "estimated_diameter_min": 0.0361331611,
            "estimated_diameter_max": 0.0807962044
        },
        "feet": {
            "estimated_diameter_min": 190.7831555951,
            "estimated_diameter_max": 426.6041048727
        }
    },
    "is_potentially_hazardous_asteroid": false,
    "close_approach_data": [
        {
            "close_approach_date": "2005-06-29",
            "close_approach_date_full": "2005-Jun-29 20:57",
            "epoch_date_close_approach": 1120078620000,
            "relative_velocity": {
                "kilometers_per_second": "9.8033761916",
                "kilometers_per_hour": "35292.1542898821",
                "miles_per_hour": "21929.1722030659"
            },
            "miss_distance": {
                "astronomical": "0.0993513773",
                "lunar": "38.6476857697",
                "kilometers": "14862754.425646351",
                "miles": "9235287.3541316038"
            },
            "orbiting_body": "Earth"
        }
    ],
    "orbital_data": {
        "orbit_id": "9",
        "orbit_determination_date": "2017-04-06 09:22:24",
        "first_observation_date": "2005-06-14",
        "last_observation_date": "2005-07-04",
        "data_arc_in_days": 20,
        "observations_used": 20,
        "orbit_uncertainty": "8",
        "minimum_orbit_intersection": ".0895898",
        "jupiter_tisserand_invariant": "3.919",
        "epoch_osculation": "2453539.5",
        "eccentricity": ".4683957091164262",
        "semi_major_axis": "1.794756442732373",
        "inclination": "10.57650863316497",
        "ascending_node_longitude": "250.3862391833905",
        "orbital_period": "878.2268454596624",
        "perihelion_distance": ".9541002260474685",
        "perihelion_argument": "70.8884511612539",
        "aphelion_distance": "2.635412659417277",
        "perihelion_time": "2453588.996147942158",
        "mean_anomaly": "339.7106939382493",
        "mean_motion": ".4099168704090076",
        "equinox": "J2000",
        "orbit_class": {
            "orbit_class_type": "APO",
            "orbit_class_description": "Near-Earth asteroid orbits which cross the Earth’s orbit similar to that of 1862 Apollo",
            "orbit_class_range": "a (semi-major axis) > 1.0 AU; q (perihelion) < 1.017 AU"
        }
    },
    "is_sentry_object": false
}